HIMAWARI-8              
1 40267U 14060A   26060.40372604 -.00000294  00000+0  00000+0 0  9994
2 40267   0.0140 122.9984 0000962 177.4565 144.7314  1.00270351 41674
IRNSS-1C                
1 40269U 14061A   26059.64139192 -.00000178  00000+0  00000+0 0  9995
2 40269   6.2390  91.0520 0019741 356.5189  24.7793  1.00270430 41609
INTELSAT 30 (IS-30)     
1 40271U 14062A   26060.50453887 -.00000169  00000+0  00000+0 0  9996
2 40271   0.0140  79.3267 0001189  40.3089 126.2417  1.00271511  5712
ARSAT 1                 
1 40272U 14062B   26060.43293284 -.00000278  00000+0  00000+0 0  9993
2 40272   0.0330  71.4095 0001698 248.9637 282.8858  1.00271766 41547
EUTELSAT 53A            
1 40277U 14064A   26059.27683711  .00000081  00000+0  00000+0 0  9999
2 40277   0.0165 217.8534 0001274 159.3102 293.5542  1.00270037 40474
MERIDIAN 7              
1 40296U 14069A   26058.50736763  .00000106  00000+0  00000+0 0  9994
2 40296  63.4494 226.2133 6691192 271.2670  18.9543  2.00584428 83038
GSAT-16                 
1 40332U 14078A   26060.45780629  .00000066  00000+0  00000+0 0  9997
2 40332   0.0431 272.9829 0004313 164.9059 301.2357  1.00274049 41021
DIRECTV 14              
1 40333U 14078B   26060.50364439 -.00000143  00000+0  00000+0 0  9998
2 40333   0.0186 113.5799 0000286  50.8466  76.9185  1.00269823 40966
YAMAL 401               
1 40345U 14082A   26060.39367266 -.00000246  00000+0  00000+0 0  9998
2 40345   0.0112 122.7871 0000219 286.8652 341.1647  1.00270315 40839
ASTRA 2G                
1 40364U 14089A   26060.35183495  .00000000  00000+0  00000+0 0  9999
2 40364   0.0232   2.9100 0004117  20.6810 290.4194  1.00269118 40885
FENGYUN 2G              
1 40367U 14090A   26060.39557934 -.00000319  00000+0  00000+0 0  9995
2 40367   5.3658  74.1209 0002095 153.8048 173.3085  1.00275552 40915
MUOS-3                  
1 40374U 15002A   26060.43239193 -.00000144  00000+0  00000+0 0  9992
2 40374   4.3133  42.9657 0053414 183.9878  72.4205  1.00273335 40501
INMARSAT 5-F2           
1 40384U 15005A   26060.43622618 -.00000304  00000+0  00000+0 0  9992
2 40384   0.0194 123.6694 0000636 113.0609  24.4981  1.00269972 39917
ABS-3A                  
1 40424U 15010A   26060.38447707 -.00000045  00000+0  00000+0 0  9993
2 40424   0.0127 138.8900 0001754 146.9469   8.7713  1.00271156 40295
EUTELSAT 115 WEST B     
1 40425U 15010B   26060.45730786 -.00000044  00000+0  00000+0 0  9993
2 40425   0.0094 272.9395 0000053   9.6742 286.3691  1.00274322 40317
MMS 1                   
1 40482U 15011A   26060.58335647 -.00002243  00000+0  00000+0 0  9991
2 40482  70.7227 350.2441 8416092 165.1990 122.8739  0.28329377  1324
MMS 2                   
1 40483U 15011B   26060.58335647 -.00002244  00000+0  00000+0 0  9993
2 40483  70.7268 350.2448 8416881 165.2061 122.8536  0.28329336  1323
MMS 3                   
1 40484U 15011C   26060.58335647 -.00002243  00000+0  00000+0 0  9993
2 40484  70.7292 350.2494 8416168 165.2002 122.8627  0.28329304  1321
MMS 4                   
1 40485U 15011D   26060.58335647 -.00002243  00000+0  00000+0 0  9994
2 40485  70.7235 350.2460 8415610 165.2066 122.8515  0.28329348  1327
EXPRESS-AM7             
1 40505U 15012A   26060.24113862  .00000132  00000+0  00000+0 0  9998
2 40505   0.0159 105.2565 0003218 220.5575 320.0039  1.00272909 39925
BEIDOU-3S IGSO-1S       
1 40549U 15019A   26059.61069309 -.00000157  00000+0  00000+0 0  9996
2 40549  49.3974 296.7700 0035838 190.4090 347.5851  1.00274522 39986
THOR 7                  
1 40613U 15022A   26060.30440558 -.00000027  00000+0  00000+0 0  9995
2 40613   0.0191 217.1054 0002681 120.0221 290.8881  1.00270476 39737
TURKMENALEM52E/MONACOSAT
1 40617U 15023A   26060.45745961  .00000086  00000+0  00000+0 0  9996
2 40617   0.0367  98.6847 0002981 247.9167  29.3305  1.00272976 39765
DIRECTV 15              
1 40663U 15026A   26060.39835588 -.00000122  00000+0  00000+0 0  9990
2 40663   0.0192 103.0938 0000936 135.9982 320.6210  1.00277750 39388
SKY MEXICO-1            
1 40664U 15026B   26060.43154617  .00000000  00000+0  00000+0 0  9997
2 40664   0.0266 137.8747 0002242 219.7655 238.1871  1.00267710 39374
METEOSAT-11 (MSG-4)     
1 40732U 15034A   26060.36850338  .00000045  00000+0  00000+0 0  9996
2 40732   2.9298  71.7010 0001794 270.4204 319.1619  1.00265141  6134
STAR ONE C4             
1 40733U 15034B   26060.46140034 -.00000283  00000+0  00000+0 0  9998
2 40733   0.0403 357.6419 0002974 358.0342 259.6609  1.00269973 38935
WGS F7 (USA 263)        
1 40746U 15036A   26060.48594931 -.00000002  00000+0  00000+0 0  9994
2 40746   0.0154 114.3627 0000393 337.0538  57.8002  1.00264246 38795
