OBJECT_NAME,OBJECT_ID,EPOCH,MEAN_MOTION,ECCENTRICITY,INCLINATION,RA_OF_ASC_NODE,ARG_OF_PERICENTER,MEAN_ANOMALY,EPHEMERIS_TYPE,CLASSIFICATION_TYPE,NORAD_CAT_ID,ELEMENT_SET_NO,REV_AT_EPOCH,BSTAR,MEAN_MOTION_DOT,MEAN_MOTION_DDOT
HIMAWARI-8,2014-060A,2026-03-01T09:41:21.929856,1.00270351,.0000962,0.0140,122.9984,177.4565,144.7314,0,U,40267,999,4167,0,-.294E-5,0
IRNSS-1C,2014-061A,2026-02-28T15:23:36.261888,1.00270430,.0019741,6.2390,91.0520,356.5189,24.7793,0,U,40269,999,4160,0,-.178E-5,0
INTELSAT 30 (IS-30),2014-062A,2026-03-01T12:06:32.158368,1.00271511,.0001189,0.0140,79.3267,40.3089,126.2417,0,U,40271,999,571,0,-.169E-5,0
ARSAT 1,2014-062B,2026-03-01T10:23:25.397376,1.00271766,.0001698,0.0330,71.4095,248.9637,282.8858,0,U,40272,999,4154,0,-.278E-5,0
EUTELSAT 53A,2014-064A,2026-02-28T06:38:38.726304,1.00270037,.00012743,0.0165,217.8534,159.3102,293.5542,0,U,40277,999,4047,0,.81E-6,0
MERIDIAN 7,2014-069A,2026-02-27T12:10:36.563232,2.00584428,.66911923,63.4494,226.2133,271.2670,18.9543,0,U,40296,999,8303,0,.106E-5,0
GSAT-16,2014-078A,2026-03-01T10:59:14.463456,1.00274049,.0004313,0.0431,272.9829,164.9059,301.2357,0,U,40332,999,4102,0,.66E-6,0
DIRECTV 14,2014-078B,2026-03-01T12:05:14.875296,1.00269823,.0000286,0.0186,113.5799,50.8466,76.9185,0,U,40333,999,4096,0,-.143E-5,0
YAMAL 401,2014-082A,2026-03-01T09:26:53.317824,1.00270315,.0000219,0.0112,122.7871,286.8652,341.1647,0,U,40345,999,4083,0,-.246E-5,0
ASTRA 2G,2014-089A,2026-03-01T08:26:38.539680,1.00269118,.0004117,0.0232,2.9100,20.6810,290.4194,0,U,40364,999,4088,0,0,0
FENGYUN 2G,2014-090A,2026-03-01T09:29:38.054976,1.00275552,.0002095,5.3658,74.1209,153.8048,173.3085,0,U,40367,999,4091,0,-.319E-5,0
MUOS-3,2015-002A,2026-03-01T10:22:38.662752,1.00273335,.0053414,4.3133,42.9657,183.9878,72.4205,0,U,40374,999,4050,0,-.144E-5,0
INMARSAT 5-F2,2015-005A,2026-03-01T10:28:09.941952,1.00269972,.0000636,0.0194,123.6694,113.0609,24.4981,0,U,40384,999,3991,0,-.304E-5,0
ABS-3A,2015-010A,2026-03-01T09:13:38.818848,1.00271156,.0001754,0.0127,138.8900,146.9469,8.7713,0,U,40424,999,4029,0,-.45E-6,0
EUTELSAT 115 WEST B,2015-010B,2026-03-01T10:58:31.399104,1.00274322,.0000053,0.0094,272.9395,9.6742,286.3691,0,U,40425,999,4031,0,-.44E-6,0
MMS 1,2015-011A,2026-03-01T14:00:01.999008,0.28329377,.8416092,70.7227,350.2441,165.1990,122.8739,0,U,40482,999,132,0,-.2243E-4,0
MMS 2,2015-011B,2026-03-01T14:00:01.999008,0.28329336,.8416881,70.7268,350.2448,165.2061,122.8536,0,U,40483,999,132,0,-.2244E-4,0
MMS 3,2015-011C,2026-03-01T14:00:01.999008,0.28329304,.8416168,70.7292,350.2494,165.2002,122.8627,0,U,40484,999,132,0,-.2243E-4,0
MMS 4,2015-011D,2026-03-01T14:00:01.999008,0.28329348,.841561,70.7235,350.2460,165.2066,122.8515,0,U,40485,999,132,0,-.2243E-4,0
EXPRESS-AM7,2015-012A,2026-03-01T05:47:14.376768,1.00272909,.0003218,0.0159,105.2565,220.5575,320.0039,0,U,40505,999,3992,0,.132E-5,0
BEIDOU-3S IGSO-1S,2015-019A,2026-02-28T14:39:23.882976,1.00274522,.00358388,49.3974,296.7700,190.4090,347.5851,0,U,40549,999,3998,0,-.157E-5,0
THOR 7,2015-022A,2026-03-01T07:18:20.642112,1.00270476,.0002681,0.0191,217.1054,120.0221,290.8881,0,U,40613,999,3973,0,-.27E-6,0
TURKMENALEM52E/MONACOSAT,2015-023A,2026-03-01T10:58:44.510304,1.00272976,.0002981,0.0367,98.6847,247.9167,29.3305,0,U,40617,999,3976,0,.86E-6,0
DIRECTV 15,2015-026A,2026-03-01T09:33:37.948032,1.00277750,.0000936,0.0192,103.0938,135.9982,320.6210,0,U,40663,999,3938,0,-.122E-5,0
SKY MEXICO-1,2015-026B,2026-03-01T10:21:25.589088,1.00267710,.0002242,0.0266,137.8747,219.7655,238.1871,0,U,40664,999,3937,0,0,0
METEOSAT-11 (MSG-4),2015-034A,2026-03-01T08:50:38.692032,1.00265141,.0001794,2.9298,71.7010,270.4204,319.1619,0,U,40732,999,613,0,.45E-6,0
STAR ONE C4,2015-034B,2026-03-01T11:04:24.989376,1.00269973,.0002974,0.0403,357.6419,358.0342,259.6609,0,U,40733,999,3893,0,-.283E-5,0
WGS F7 (USA 263),2015-036A,2026-03-01T11:39:46.020384,1.00264246,.0000393,0.0154,114.3627,337.0538,57.8002,0,U,40746,999,3879,0,-.2E-7,0
